COSMOS 2251 DEB         
1 36437U 93036BAL 17345.14747179  .00000685  00000-0  20411-3 0  9994
2 36437  73.9519 156.1363 0030502 321.1730  38.7235 14.44778169435158
